{"type":"FeatureCollection","properties":{"_comment":"Offline-Basiskarte (Layer B) fuer den Peloponnes-Guide. Landflaeche/Kuestenlinie, abgeleitet aus OpenStreetMap-Daten (ueber @geo-maps/earth-lands-1km, ODbL), zugeschnitten auf die Peloponnes-Bounding-Box und auf ca. 1 km Aufloesung reduziert. Dient als grober Offline-Fallback, wenn Online-Kacheln (Layer A) nicht erreichbar sind -- nicht als praezise Navigationsgrundlage.","source":"OpenStreetMap contributors, via geo-maps (simonepri/geo-maps)","license":"ODbL 1.0","resolution":"~1km","boundingBox":[20.9,36.3,23.4,38.4]},"features":[{"type":"Feature","properties":{"layer":"land"},"geometry":{"type":"MultiPolygon","coordinates":[[[[21.487,38.318],[21.454,38.32],[21.484,38.297],[21.487,38.318]]],[[[23.306,37.32],[23.362,37.341],[23.351,37.35],[23.336,37.335],[23.324,37.347],[23.284,37.34],[23.306,37.32]]],[[[23.4,37.2944],[23.4,37.3175],[23.363,37.299],[23.397,37.293],[23.4,37.2944]]],[[[23.25,37.806],[23.257,37.814],[23.238,37.816],[23.25,37.806]]],[[[22.079,38.367],[22.06,38.374],[22.088,38.356],[22.079,38.367]]],[[[21.103,38.282],[21.118,38.32],[21.094,38.3],[21.103,38.282]]],[[[21.101,38.393],[21.1027,38.4],[21.0979,38.4],[21.101,38.393]]],[[[21.696,36.737],[21.726,36.783],[21.705,36.796],[21.696,36.737]]],[[[21.66,36.965],[21.711,36.942],[21.68,36.886],[21.705,36.811],[21.716,36.817],[21.761,36.786],[21.768,36.799],[21.823,36.803],[21.878,36.718],[21.934,36.758],[21.935,36.78],[21.968,36.794],[21.938,36.808],[21.921,36.864],[21.931,36.983],[22.04,37.025],[22.151,37.017],[22.146,36.939],[22.126,36.915],[22.171,36.89],[22.201,36.906],[22.226,36.894],[22.258,36.839],[22.297,36.814],[22.301,36.77],[22.313,36.771],[22.348,36.699],[22.389,36.693],[22.361,36.665],[22.383,36.645],[22.363,36.639],[22.376,36.617],[22.364,36.607],[22.387,36.593],[22.372,36.577],[22.387,36.575],[22.391,36.541],[22.375,36.535],[22.365,36.546],[22.347,36.514],[22.369,36.477],[22.393,36.466],[22.4,36.482],[22.458,36.452],[22.483,36.385],[22.486,36.402],[22.5,36.401],[22.481,36.433],[22.502,36.444],[22.504,36.486],[22.472,36.527],[22.472,36.59],[22.481,36.618],[22.51,36.603],[22.528,36.617],[22.507,36.667],[22.551,36.65],[22.548,36.672],[22.522,36.681],[22.522,36.707],[22.576,36.733],[22.562,36.774],[22.581,36.788],[22.623,36.805],[22.697,36.805],[22.698,36.815],[22.698,36.805],[22.785,36.797],[22.821,36.711],[22.807,36.672],[22.821,36.655],[22.838,36.689],[22.87,36.664],[22.884,36.64],[22.868,36.63],[22.937,36.583],[22.968,36.52],[23.022,36.528],[23.053,36.514],[23.085,36.44],[23.132,36.428],[23.145,36.442],[23.198,36.435],[23.196,36.459],[23.129,36.498],[23.152,36.537],[23.075,36.579],[23.032,36.626],[23.041,36.687],[23.026,36.728],[23.058,36.746],[23.086,36.729],[23.084,36.76],[23.111,36.773],[23.076,36.785],[23.089,36.785],[23.09,36.818],[23.039,36.857],[23.051,36.861],[23.02,36.945],[22.992,36.973],[23.006,36.984],[23.005,37.024],[22.964,37.07],[22.985,37.072],[22.984,37.085],[22.954,37.098],[22.955,37.119],[22.917,37.108],[22.897,37.12],[22.912,37.19],[22.855,37.255],[22.863,37.27],[22.839,37.279],[22.817,37.337],[22.754,37.391],[22.772,37.424],[22.728,37.486],[22.739,37.516],[22.717,37.563],[22.782,37.589],[22.82,37.528],[22.852,37.513],[22.912,37.545],[22.898,37.533],[22.927,37.523],[22.915,37.534],[22.929,37.535],[22.936,37.52],[22.981,37.513],[23.003,37.46],[23.042,37.482],[23.057,37.451],[23.123,37.45],[23.143,37.415],[23.112,37.423],[23.102,37.391],[23.063,37.392],[23.066,37.352],[23.122,37.344],[23.139,37.328],[23.11,37.333],[23.127,37.314],[23.152,37.326],[23.136,37.309],[23.169,37.286],[23.201,37.292],[23.18,37.321],[23.189,37.338],[23.277,37.347],[23.247,37.355],[23.258,37.368],[23.225,37.372],[23.26,37.384],[23.247,37.388],[23.267,37.406],[23.291,37.395],[23.291,37.408],[23.308,37.405],[23.31,37.393],[23.341,37.415],[23.4,37.4057],[23.4,37.508],[23.391,37.509],[23.4,37.5154],[23.4,37.5399],[23.365,37.56],[23.387,37.561],[23.4,37.5811],[23.4,37.6342],[23.398,37.637],[23.343,37.637],[23.307,37.618],[23.369,37.553],[23.332,37.532],[23.16,37.617],[23.17,37.652],[23.151,37.681],[23.176,37.716],[23.119,37.731],[23.117,37.756],[23.127,37.766],[23.152,37.757],[23.179,37.777],[23.178,37.804],[23.117,37.847],[23.006,37.847],[22.992,37.881],[23.018,37.9],[22.958,37.953],[22.888,37.927],[22.794,37.969],[22.726,38.035],[22.638,38.078],[22.491,38.136],[22.39,38.136],[22.354,38.15],[22.335,38.177],[22.217,38.18],[22.149,38.218],[22.109,38.266],[22.077,38.254],[22.027,38.285],[22.019,38.31],[21.948,38.328],[21.878,38.325],[21.846,38.341],[21.826,38.317],[21.78,38.313],[21.746,38.282],[21.715,38.211],[21.672,38.168],[21.607,38.143],[21.532,38.155],[21.453,38.199],[21.41,38.191],[21.401,38.201],[21.42,38.169],[21.401,38.169],[21.401,38.153],[21.383,38.169],[21.401,38.202],[21.373,38.204],[21.365,38.12],[21.293,38.016],[21.313,38.016],[21.313,37.996],[21.27,37.99],[21.199,37.935],[21.17,37.926],[21.126,37.938],[21.107,37.877],[21.11,37.842],[21.233,37.807],[21.301,37.761],[21.319,37.705],[21.301,37.679],[21.311,37.632],[21.334,37.663],[21.371,37.66],[21.529,37.57],[21.598,37.506],[21.621,37.521],[21.615,37.487],[21.699,37.313],[21.671,37.258],[21.588,37.207],[21.565,37.163],[21.582,37.091],[21.573,37.059],[21.64,37.005],[21.66,36.965]],[[22.368,37.442],[22.381,37.44],[22.368,37.43],[22.368,37.442]],[[22.456,37.868],[22.475,37.858],[22.456,37.842],[22.456,37.868]],[[21.989,37.782],[22.03,37.753],[22.005,37.753],[21.989,37.782]],[[21.443,37.892],[21.445,37.911],[21.489,37.913],[21.518,37.892],[21.473,37.892],[21.445,37.87],[21.443,37.892]]],[[[21.778,36.699],[21.788,36.74],[21.76,36.758],[21.75,36.714],[21.768,36.717],[21.778,36.699]]],[[[21.546,37.049],[21.553,37.034],[21.558,37.067],[21.546,37.049]]],[[[22.9104,36.3],[23.02,36.3],[22.986,36.321],[22.952,36.385],[22.923,36.377],[22.891,36.32],[22.9104,36.3]]],[[[20.9,37.8067],[20.9,37.7339],[20.919,37.737],[20.993,37.703],[20.993,37.728],[20.901,37.776],[20.905,37.805],[20.9,37.8067]]],[[[23.34,37.673],[23.373,37.694],[23.367,37.711],[23.347,37.714],[23.327,37.695],[23.324,37.677],[23.34,37.673]]],[[[22.979,36.511],[22.933,36.488],[22.932,36.461],[22.971,36.476],[22.988,36.455],[22.979,36.511]]],[[[23.161,37.265],[23.115,37.283],[23.092,37.278],[23.136,37.235],[23.164,37.239],[23.161,37.265]]],[[[22.971,37.429],[22.998,37.435],[22.974,37.442],[22.971,37.429]]]]}}]}